{"type": "FeatureCollection", "features": [ {"type": "Feature", "properties": {"norad_id": 43010, "name": "FENGYUN 3D", "group": "weather", "lat": 32.81441363903048, "lon": -41.2160375202716, "alt_km": 824.8502075800488, "timestamp": "2025-12-24T03:53:29.285233+00:00", "meta": {"OBJECT_NAME": "FENGYUN 3D", "OBJECT_ID": "2017-072A", "EPOCH": "2025-12-23T20:58:09.740640", "MEAN_MOTION": 14.19686944, "ECCENTRICITY": 0.0001478, "INCLINATION": 98.991, "RA_OF_ASC_NODE": 324.3507, "ARG_OF_PERICENTER": 151.2111, "MEAN_ANOMALY": 208.9146, "EPHEMERIS_TYPE": 0, "CLASSIFICATION_TYPE": "U", "NORAD_CAT_ID": 43010, "ELEMENT_SET_NO": 999, "REV_AT_EPOCH": 42011, "BSTAR": -3.1942e-06, "MEAN_MOTION_DOT": -5.3e-07, "MEAN_MOTION_DDOT": 0}, "tle": {"line1": "1 43010U 17072A   25357.87372385 -.00000053  00000+0 -31942-5 0  9993", "line2": "2 43010  98.9910 324.3507 0001478 151.2111 208.9146 14.19686944420112"}}, "geometry": {"type": "Point", "coordinates": [-41.2160375202716, 32.81441363903048]}}, {"type": "Feature", "properties": {"norad_id": 43013, "name": "NOAA 20 (JPSS-1)", "group": "weather", "lat": 0.8663871358414205, "lon": 114.468228496036, "alt_km": 830.2308885123775, "timestamp": "2025-12-24T03:53:29.285244+00:00", "meta": {"OBJECT_NAME": "NOAA 20 (JPSS-1)", "OBJECT_ID": "2017-073A", "EPOCH": "2025-12-23T18:35:34.117152", "MEAN_MOTION": 14.19528533, "ECCENTRICITY": 0.0002087, "INCLINATION": 98.7614, "RA_OF_ASC_NODE": 293.9514, "ARG_OF_PERICENTER": 71.2865, "MEAN_ANOMALY": 288.8537, "EPHEMERIS_TYPE": 0, "CLASSIFICATION_TYPE": "U", "NORAD_CAT_ID": 43013, "ELEMENT_SET_NO": 999, "REV_AT_EPOCH": 41958, "BSTAR": 6.2691e-05, "MEAN_MOTION_DOT": 8.8e-07, "MEAN_MOTION_DDOT": 0}, "tle": {"line1": "1 43013U 17073A   25357.77470043  .00000088  00000+0  62691-4 0  9996", "line2": "2 43013  98.7614 293.9514 0002087  71.2865 288.8537 14.19528533419586"}}, "geometry": {"type": "Point", "coordinates": [114.468228496036, 0.8663871358414205]}}, {"type": "Feature", "properties": {"norad_id": 43226, "name": "GOES 17", "group": "weather", "lat": -0.20465445088554463, "lon": 61.827632512423044, "alt_km": 35796.087838467116, "timestamp": "2025-12-24T03:53:29.285257+00:00", "meta": {"OBJECT_NAME": "GOES 17", "OBJECT_ID": "2018-022A", "EPOCH": "2025-12-23T13:25:33.995136", "MEAN_MOTION": 1.00272474, "ECCENTRICITY": 0.0003033, "INCLINATION": 0.4839, "RA_OF_ASC_NODE": 89.0854, "ARG_OF_PERICENTER": 190.6629, "MEAN_ANOMALY": 284.4872, "EPHEMERIS_TYPE": 0, "CLASSIFICATION_TYPE": "U", "NORAD_CAT_ID": 43226, "ELEMENT_SET_NO": 999, "REV_AT_EPOCH": 2866, "BSTAR": 0, "MEAN_MOTION_DOT": -1.62e-06, "MEAN_MOTION_DDOT": 0}, "tle": {"line1": "1 43226U 18022A   25357.55942124 -.00000162  00000+0  00000+0 0  9992", "line2": "2 43226   0.4839  89.0854 0003033 190.6629 284.4872  1.00272474 28663"}}, "geometry": {"type": "Point", "coordinates": [61.827632512423044, -0.20465445088554463]}}, {"type": "Feature", "properties": {"norad_id": 43491, "name": "FENGYUN 2H", "group": "weather", "lat": 1.29838784618706, "lon": -129.33120315273584, "alt_km": 35776.62819139451, "timestamp": "2025-12-24T03:53:29.285271+00:00", "meta": {"OBJECT_NAME": "FENGYUN 2H", "OBJECT_ID": "2018-050A", "EPOCH": "2025-12-23T20:21:25.420896", "MEAN_MOTION": 1.00270737, "ECCENTRICITY": 0.0002378, "INCLINATION": 2.5778, "RA_OF_ASC_NODE": 81.2126, "ARG_OF_PERICENTER": 166.6705, "MEAN_ANOMALY": 229.4472, "EPHEMERIS_TYPE": 0, "CLASSIFICATION_TYPE": "U", "NORAD_CAT_ID": 43491, "ELEMENT_SET_NO": 999, "REV_AT_EPOCH": 2768, "BSTAR": 0, "MEAN_MOTION_DOT": -1.1e-06, "MEAN_MOTION_DDOT": 0}, "tle": {"line1": "1 43491U 18050A   25357.84821089 -.00000110  00000+0  00000+0 0  9998", "line2": "2 43491   2.5778  81.2126 0002378 166.6705 229.4472  1.00270737 27683"}}, "geometry": {"type": "Point", "coordinates": [-129.33120315273584, 1.29838784618706]}}, {"type": "Feature", "properties": {"norad_id": 43689, "name": "METOP-C", "group": "weather", "lat": 39.752765836582874, "lon": 48.44618228412576, "alt_km": 816.7381740489454, "timestamp": "2025-12-24T03:53:29.285293+00:00", "meta": {"OBJECT_NAME": "METOP-C", "OBJECT_ID": "2018-087A", "EPOCH": "2025-12-23T19:15:21.152160", "MEAN_MOTION": 14.21488436, "ECCENTRICITY": 7.03e-05, "INCLINATION": 98.6913, "RA_OF_ASC_NODE": 55.4016, "ARG_OF_PERICENTER": 19.4056, "MEAN_ANOMALY": 340.7148, "EPHEMERIS_TYPE": 0, "CLASSIFICATION_TYPE": "U", "NORAD_CAT_ID": 43689, "ELEMENT_SET_NO": 999, "REV_AT_EPOCH": 36991, "BSTAR": 7.3836e-05, "MEAN_MOTION_DOT": 1.18e-06, "MEAN_MOTION_DDOT": 0}, "tle": {"line1": "1 43689U 18087A   25357.80232815  .00000118  00000+0  73836-4 0  9995", "line2": "2 43689  98.6913  55.4016 0000703  19.4056 340.7148 14.21488436369910"}}, "geometry": {"type": "Point", "coordinates": [48.44618228412576, 39.752765836582874]}}, {"type": "Feature", "properties": {"norad_id": 43823, "name": "GEO-KOMPSAT-2A", "group": "weather", "lat": -0.0013760417387538705, "lon": -80.43711592965069, "alt_km": 35787.75164824977, "timestamp": "2025-12-24T03:53:29.285305+00:00", "meta": {"OBJECT_NAME": "GEO-KOMPSAT-2A", "OBJECT_ID": "2018-100A", "EPOCH": "2025-12-23T18:52:41.268864", "MEAN_MOTION": 1.00270306, "ECCENTRICITY": 2.83e-05, "INCLINATION": 0.0456, "RA_OF_ASC_NODE": 176.9766, "ARG_OF_PERICENTER": 280.5392, "MEAN_ANOMALY": 46.4855, "EPHEMERIS_TYPE": 0, "CLASSIFICATION_TYPE": "U", "NORAD_CAT_ID": 43823, "ELEMENT_SET_NO": 999, "REV_AT_EPOCH": 2587, "BSTAR": 0, "MEAN_MOTION_DOT": -3.23e-06, "MEAN_MOTION_DDOT": 0}, "tle": {"line1": "1 43823U 18100A   25357.78658876 -.00000323  00000+0  00000+0 0  9994", "line2": "2 43823   0.0456 176.9766 0000283 280.5392  46.4855  1.00270306 25874"}}, "geometry": {"type": "Point", "coordinates": [-80.43711592965069, -0.0013760417387538705]}}, {"type": "Feature", "properties": {"norad_id": 44387, "name": "METEOR-M2 2", "group": "weather", "lat": -49.24436841937967, "lon": 147.55711092528998, "alt_km": 817.9756113682724, "timestamp": "2025-12-24T03:53:29.285317+00:00", "meta": {"OBJECT_NAME": "METEOR-M2 2", "OBJECT_ID": "2019-038A", "EPOCH": "2025-12-23T21:45:25.705728", "MEAN_MOTION": 14.24295644, "ECCENTRICITY": 0.0001753, "INCLINATION": 98.8982, "RA_OF_ASC_NODE": 337.7719, "ARG_OF_PERICENTER": 127.6276, "MEAN_ANOMALY": 232.5062, "EPHEMERIS_TYPE": 0, "CLASSIFICATION_TYPE": "U", "NORAD_CAT_ID": 44387, "ELEMENT_SET_NO": 999, "REV_AT_EPOCH": 33634, "BSTAR": 9.7964e-06, "MEAN_MOTION_DOT": -2.3e-07, "MEAN_MOTION_DDOT": 0}, "tle": {"line1": "1 44387U 19038A   25357.90654752 -.00000023  00000+0  97964-5 0  9992", "line2": "2 44387  98.8982 337.7719 0001753 127.6276 232.5062 14.24295644336346"}}, "geometry": {"type": "Point", "coordinates": [147.55711092528998, -49.24436841937967]}}, {"type": "Feature", "properties": {"norad_id": 47719, "name": "ARKTIKA-M 1", "group": "weather", "lat": 56.75651607724718, "lon": 132.94214165049894, "alt_km": 33404.66070433944, "timestamp": "2025-12-24T03:53:29.285330+00:00", "meta": {"OBJECT_NAME": "ARKTIKA-M 1", "OBJECT_ID": "2021-016A", "EPOCH": "2025-12-23T01:01:51.743136", "MEAN_MOTION": 2.00630806, "ECCENTRICITY": 0.72093828, "INCLINATION": 63.1759, "RA_OF_ASC_NODE": 82.5898, "ARG_OF_PERICENTER": 269.1646, "MEAN_ANOMALY": 15.5425, "EPHEMERIS_TYPE": 0, "CLASSIFICATION_TYPE": "U", "NORAD_CAT_ID": 47719, "ELEMENT_SET_NO": 999, "REV_AT_EPOCH": 3525, "BSTAR": 0, "MEAN_MOTION_DOT": -6.7e-07, "MEAN_MOTION_DDOT": 0}, "tle": {"line1": "1 47719U 21016A   25357.04295999 -.00000067  00000+0  00000+0 0  9999", "line2": "2 47719  63.1759  82.5898 7209382 269.1646  15.5425  2.00630806 35258"}}, "geometry": {"type": "Point", "coordinates": [132.94214165049894, 56.75651607724718]}}, {"type": "Feature", "properties": {"norad_id": 49008, "name": "FENGYUN 3E", "group": "weather", "lat": 7.649927143957603, "lon": -2.6375376691482026, "alt_km": 828.2411073107805, "timestamp": "2025-12-24T03:53:29.285364+00:00", "meta": {"OBJECT_NAME": "FENGYUN 3E", "OBJECT_ID": "2021-062A", "EPOCH": "2025-12-23T21:05:24.598752", "MEAN_MOTION": 14.19879881, "ECCENTRICITY": 8.62e-05, "INCLINATION": 98.7472, "RA_OF_ASC_NODE": 358.2674, "ARG_OF_PERICENTER": 194.1324, "MEAN_ANOMALY": 165.9828, "EPHEMERIS_TYPE": 0, "CLASSIFICATION_TYPE": "U", "NORAD_CAT_ID": 49008, "ELEMENT_SET_NO": 999, "REV_AT_EPOCH": 23170, "BSTAR": -0.00017116, "MEAN_MOTION_DOT": -4.07e-06, "MEAN_MOTION_DDOT": 0}, "tle": {"line1": "1 49008U 21062A   25357.87875693 -.00000407  00000+0 -17116-3 0  9998", "line2": "2 49008  98.7472 358.2674 0000862 194.1324 165.9828 14.19879881231703"}}, "geometry": {"type": "Point", "coordinates": [-2.6375376691482026, 7.649927143957603]}}, {"type": "Feature", "properties": {"norad_id": 51850, "name": "GOES 18", "group": "weather", "lat": -0.002098969634441623, "lon": 14.30839710808379, "alt_km": 35785.30584773172, "timestamp": "2025-12-24T03:53:29.285378+00:00", "meta": {"OBJECT_NAME": "GOES 18", "OBJECT_ID": "2022-021A", "EPOCH": "2025-12-23T07:37:18.727104", "MEAN_MOTION": 1.00270845, "ECCENTRICITY": 3.47e-05, "INCLINATION": 0.0109, "RA_OF_ASC_NODE": 113.4809, "ARG_OF_PERICENTER": 211.8579, "MEAN_ANOMALY": 104.0988, "EPHEMERIS_TYPE": 0, "CLASSIFICATION_TYPE": "U", "NORAD_CAT_ID": 51850, "ELEMENT_SET_NO": 999, "REV_AT_EPOCH": 482, "BSTAR": 0, "MEAN_MOTION_DOT": 1.18e-06, "MEAN_MOTION_DDOT": 0}, "tle": {"line1": "1 51850U 22021A   25357.31757786  .00000118  00000+0  00000+0 0  9990", "line2": "2 51850   0.0109 113.4809 0000347 211.8579 104.0988  1.00270845  4825"}}, "geometry": {"type": "Point", "coordinates": [14.30839710808379, -0.002098969634441623]}}]}